ACS3                    
1 59588U 24077B   24228.86982496  .00000123  00000+0  17871-3 0  9997
2 59588  97.4022 283.1780 0018846 292.6810  67.2349 13.67698211 15567
